[{"OBJECT_NAME":"GEESAT-2 04","OBJECT_ID":"2024-023D","EPOCH":"2026-03-09T22:58:49.443744","MEAN_MOTION":14.96681304,"ECCENTRICITY":0.00064656,"INCLINATION":49.992,"RA_OF_ASC_NODE":72.838,"ARG_OF_PERICENTER":6.7244,"MEAN_ANOMALY":353.3785,"EPHEMERIS_TYPE":0,"CLASSIFICATION_TYPE":"U","NORAD_CAT_ID":58908,"ELEMENT_SET_NO":999,"REV_AT_EPOCH":11446,"BSTAR":0.0002767609,"MEAN_MOTION_DOT":2.943e-5,"MEAN_MOTION_DDOT":0},{"OBJECT_NAME":"STARLINK-35841","OBJECT_ID":"2025-298M","EPOCH":"2026-03-09T22:54:39.942144","MEAN_MOTION":14.99142936,"ECCENTRICITY":0.00019097,"INCLINATION":70.0024,"RA_OF_ASC_NODE":13.923,"ARG_OF_PERICENTER":284.3546,"MEAN_ANOMALY":75.7401,"EPHEMERIS_TYPE":0,"CLASSIFICATION_TYPE":"U","NORAD_CAT_ID":67086,"ELEMENT_SET_NO":999,"REV_AT_EPOCH":1325,"BSTAR":0.00075918804,"MEAN_MOTION_DOT":9.169e-5,"MEAN_MOTION_DDOT":0}]
